#cP2010  1 15  0  0  0.00000000      96 ORBIT IGS05 HLM  IGS
## 1566 432000.00000000   900.00000000 55211 0.0000000000000
+   32   G01G02G03G04G05G06G07G08G09G10G11G12G13G14G15G16G17
+        G18G19G20G21G22G23G24G25G26G27G28G29G30G31G32  0  0
+          0  0  0  0  0  0  0  0  0  0  0  0  0  0  0  0  0
+          0  0  0  0  0  0  0  0  0  0  0  0  0  0  0  0  0
+          0  0  0  0  0  0  0  0  0  0  0  0  0  0  0  0  0
++         4  2  2  2  2  2  2  2  2  2  2  2  2  3  2  2  2
++         2  3  2  3  3  2  2  3  2  2  2  0  3  2  2  0  0
++         0  0  0  0  0  0  0  0  0  0  0  0  0  0  0  0  0
++         0  0  0  0  0  0  0  0  0  0  0  0  0  0  0  0  0
++         0  0  0  0  0  0  0  0  0  0  0  0  0  0  0  0  0
%c G  cc GPS ccc cccc cccc cccc cccc ccccc ccccc ccccc ccccc
%c cc cc ccc ccc cccc cccc cccc cccc ccccc ccccc ccccc ccccc
%f  1.2500000  1.025000000  0.00000000000  0.000000000000000
%f  0.0000000  0.000000000  0.00000000000  0.000000000000000
%i    0    0    0    0      0      0      0      0         0
%i    0    0    0    0      0      0      0      0         0
/* FINAL ORBIT COMBINATION FROM WEIGHTED AVERAGE OF:        
/* cod emr esa gfz grg jpl mit ngs sio                      
/* REFERENCED TO IGS TIME (IGST) AND TO WEIGHTED MEAN POLE: 
/* PCV:IGS05_1567 OL/AL:FES2004  NONE     Y  ORB:CMB CLK:CMB
*  2010  1 15 15  0  0.00000000
PG01 -16722.556998   9116.269922  18365.242766 999999.999999
PG02 -12280.633946 -22520.355071   7655.885137    215.785547  6  4  4 101       
PG03  10406.985508  13238.325830 -20947.168078    502.339816  7  2  6 121       
PG04    -53.828650 -19784.427828  17378.155452   -458.902171  6  6  5  77       
PG05  -4904.785840 -20357.894263 -16305.179930    -16.460711  7  5  2 114       
PG06   5883.835680  14684.401076 -21163.212122    259.859577  6  3  6  91       
PG07  16751.027390  -2019.088478 -20558.899758      4.314948  8  8  6 120       
PG08   8146.444198 -12871.426634 -21701.405817      2.170459  6  5  5 133       
PG09 -20331.627713 -15128.449752   7354.704623    100.163322  6  5  2 138       
PG10   -395.817962 -23405.186874 -12378.147525    -32.900404  4  7  5 119       
PG11  23621.799096   8778.896985   8681.885423    -39.868624  3  6  5 109       
PG12 -14205.001149  -4965.952268  21942.800773   -162.749719  6  5  6 103       
PG13  25636.031971  -5700.653929  -4139.714971    306.676821  5  6  5 118       
PG14 -14135.607957  13821.625031  17815.366327      0.358858  7  7  6 109       
PG15 -18048.621874  -8918.240526 -17352.268959   -313.239606  5  9  7 106       
PG16  -1078.097153  23932.414722 -11137.343839    -30.814606  4  6  8 125       
PG17  12563.122975 -14842.973941  18078.465671    121.391856  5  5  4 124       
PG18 -16666.024902  14680.741711 -14031.528817     42.078139  6  6  6 114       
PG19  19104.996633   9347.753539 -16049.227767     -9.752542  7  7  3 130       
PG20  16118.364101     59.215199  20970.015074     63.301635  4  4  4 109       
PG21 -14620.551259   6657.820695 -20914.717340    -34.170116  7  7  9 120       
PG22 -11953.323629  23382.046674  -3535.162380    181.473082  6  6  6 106       
PG23  25665.073958    637.292955   7372.537098    382.290250  6  7  3 142       
PG24 -19917.261911  -7647.833646 -15588.166614    254.029979  8  7  2  99       
PG25  19886.771348   3386.869630 -16827.810134     79.793007 10  7  5 112       
PG26 -22520.291719   9527.432926  10380.196397     -9.862992  4  5  6 115       
PG27 -20714.740780 -15774.406295   6171.458831    117.404498  7  5  3 139       
PG28  12969.071891 -22146.251482  -5711.729321    -23.570671  8  6  6 120       
PG29 -26273.867439   3758.420325    364.917970 999999.999999
PG30 -16434.790592   7260.230639  19156.850069    210.869136  6  7  9 142       
PG31   2575.193912  20567.817532  16730.803842    -55.269262  3  8  6 124       
PG32  11737.689170  10733.554244  21672.505025    116.386603  3  6  6  61       
*  2010  1 15 15 15  0.00000000
PG01 -16181.767370   6978.050032  19737.894846 999999.999999
PG02 -11396.799530 -21950.456114  10191.398362    215.789270  5  5  4  96       
PG03   8190.634083  14043.160216 -21378.650513    502.344559  7  3  6 118       
PG04   1507.515725 -18334.163419  18860.498179   -458.919491  5  7  5  73       
PG05  -4197.436040 -21969.632721 -14274.991673    -16.457349  7  6  2 110       
PG06   3497.057224  15329.132596 -21224.315046    259.857426  6  3  6  86       
PG07  18214.482032   -271.576372 -19391.588819      4.314435  7  8  6 111       
PG08   9735.717666 -10937.624617 -22149.306097      2.169600  6  5  5 136       
PG09 -20711.659399 -15815.749081   4575.160666    100.165062  6  4  2 133       
PG10    256.718890 -24517.670586  -9922.478343    -32.900703  4  7  5 107       
PG11  24116.417961   9613.889015   6179.209495    -39.870460  4  7  5 118       
PG12 -13419.550080  -7325.124142  21787.387337   -162.745335  5  5  6  94       
PG13  25948.679655  -5588.711923  -1241.524661    306.676842  4  7  5 132       
PG14 -16033.840947  14026.265076  15923.135725      0.363199  7  7  6 112       
PG15 -16058.765587  -9531.060551 -18900.943554   -313.237475  5  9  7 115       
PG16  -1661.783182  24935.467135  -8557.375261    -30.818639  4  6  8 117       
PG17  14520.530865 -15055.505582  16326.319006    121.394896  6  6  5 128       
PG18 -16318.202302  12917.256399 -16032.118608     42.080652  6  5  6 110       
PG19  17209.066598   9761.952152 -17819.131497     -9.754382  6  6  5 136       
PG20  15476.203281   2429.452294  21313.419500     63.300737  5  3  4 113       
PG21 -16184.122281   4806.978068 -20326.878553    -34.172355  7  6  8 118       
PG22 -12062.555031  22725.559931  -6271.629692    181.472299  6  6  6 110       
PG23  24737.263826   1027.352645   9993.185897    382.289649  4  7  3 139       
PG24 -20809.310831  -9099.327757 -13493.128079    254.032843  8  7  4 109       
PG25  21152.542506   4781.462245 -14853.976510     79.800060 10  8  6 126       
PG26 -23619.501375   9562.495846   7745.501796     -9.865648  5  6  6 116       
PG27 -20910.783980 -16236.530936   3356.822212    117.408104  7  4  3 137       
PG28  12910.220537 -21241.383708  -8444.586814    -23.570006  8  6  6  92       
PG29 -26129.374427   3468.958254   3212.302736 999999.999999
PG30 -15930.403964   4976.883558  20263.524006    210.872219  5  6 10 133       
PG31   1149.607120  19190.327155  18472.624277    -55.268061  3  9  6 113       
PG32  10786.924945  12894.510989  20993.928234    116.379509  3  6  6  61       
*  2010  1 15 15 30  0.00000000
PG01 -15720.045603   4682.372252  20767.046282 999999.999999
PG02 -10285.348599 -21235.867303  12555.195382    215.793403  5  5  5 101       
PG03   5986.540868  14964.929401 -21454.333549    502.348412  6  3  6 106       
PG04   3241.237878 -16855.717990  20010.357040   -458.936100  5  7  5  79       
PG05  -3634.211804 -23379.725517 -11998.418996    -16.453978  8  7    113       
PG06   1155.937172  16082.047070 -20914.124188    259.854953  6  3  6  87       
PG07  19661.466731   1288.143163 -17892.304209      4.313918  6  8  6 113       
PG08  11448.266264  -9079.254688 -22215.749416      2.168674  6  5  5 127       
PG09 -20893.995233 -16258.467176   1715.893857    100.167377  6  4  1 138       
PG10    775.752706 -25384.880615  -7293.936899    -32.902965  3  7  5 107       
PG11  24403.461205  10275.567929   3571.661241    -39.872210  4  7  6 117       
PG12 -12772.225771  -9684.584504  21259.451049   -162.740651  4  4  5 102       
PG13  25944.541412  -5424.927108   1677.989197    306.676549  3  7  4 123       
PG14 -17695.477146  14284.531091  13758.010063      0.367314  7  7  7 112       
PG15 -13951.799753 -10290.110449 -20124.733178   -313.235613  5  9  6 119       
PG16  -2108.866060  25676.755636  -5827.695912    -30.822337  5  7  8 117       
PG17  16258.413618 -15315.512848  14292.398681    121.398362  6  7  5 131       
PG18 -15996.218679  10935.342387 -17747.629562     42.083028  5  4  6  96       
PG19  15156.180559  10310.722577 -19284.666236     -9.756314  4  6  6 150       
PG20  14945.235359   4844.875435  21285.559683     63.300224  6  3  4 119       
PG21 -17768.059268   3099.529932 -19383.825347    -34.174445  8  6  8 117       
PG22 -12119.081057  21782.648820  -8899.180323    181.471513  6  6  6 103       
PG23  23555.753857   1543.024949  12444.499554    382.288729  3  7  4 144       
PG24 -21602.113200 -10319.892542 -11162.108449    254.036820  8  7  4 110       
PG25  22301.987965   5952.911516 -12616.432786     79.807140 10  8  6  85       
PG26 -24411.921472   9599.552420   4978.527074     -9.868488  6  6  7 129       
PG27 -20887.979952 -16481.211870    485.287964    117.410789  7  3  3 140       
PG28  12815.034950 -20038.763810 -11026.912646    -23.569637  8  6  6 118       
PG29 -25690.200350   3096.232384   6004.368318 999999.999999
PG30 -15518.863018   2565.971219  21009.123911    210.874426  5  6 10 130       
PG31   -474.591985  17768.939544  19900.174939    -55.266905  4  9  6 117       
PG32   9984.779836  15012.199757  19967.415374    116.372323  3  7  6  54       
EOF
